COSMOS 1953             
1 19210U 88050A   26062.73357009  .00011265  00000+0  40539-3 0  9992
2 19210  82.5118 164.2355 0012197 141.9070 218.3034 15.28394735 36870
SL-8 R/B                
1 19257U 88053B   26062.61763806  .00000334  00000+0  11675-3 0  9993
2 19257  74.0469 123.6591 0021290 303.8485 168.0525 14.38911518975726
COSMOS 1975             
1 19573U 88093A   26062.63457749  .00010163  00000+0  37065-3 0  9998
2 19573  82.5198 123.7633 0011617 184.2896 175.8246 15.27960127 18483
SL-14 R/B               
1 19574U 88093B   26062.47691127  .00000752  00000+0  83655-4 0  9991
2 19574  82.5293  47.8765 0022117  60.9018  59.3481 14.85647444    97
SL-16 R/B               
1 19650U 88102B   26062.68904779 -.00000015  00000+0  16652-4 0  9996
2 19650  71.0000 164.1221 0013579  10.7276 349.4134 14.16149412926048
INTERCOSMOS 24          
1 20261U 89080A   26062.60709607  .00000840  00000+0  24957-3 0  9998
2 20261  82.6033 108.3653 1186833 306.9522  42.8481 12.59546815666032
SL-14 R/B               
1 20262U 89080C   26062.79438839  .00000827  00000+0  24628-3 0  9995
2 20262  82.5972 176.9696 1230343 198.2211 157.0827 12.50484949659412
DELTA 1 R/B             
1 20323U 89089B   26062.55092514  .00000483  00000+0  12780-3 0  9996
2 20323  97.0709 270.9659 0070090 141.0935 219.5338 14.50657398894843
ARIANE 40 R/B           
1 20443U 90005H   26062.76779549  .00000374  00000+0  13247-3 0  9990
2 20443  98.3096 123.6054 0009483 216.9234 143.1303 14.39865966891956
DELTA 2 R/B(1)          
1 20453U 90008B   26062.79095829  .00089154  00000+0  10724-2 0  9998
2 20453  35.6039 213.5409 0086768 204.1361 155.5295 15.55064062925213
COSMOS 2058             
1 20465U 90010A   26062.95404897  .00005939  00000+0  35115-3 0  9992
2 20465  82.4666  53.0784 0009790   2.3811 357.7464 15.11259330941378
SL-14 R/B               
1 20466U 90010B   26062.68414289  .00000520  00000+0  60144-4 0  9991
2 20466  82.4992 273.0315 0018918 323.3212  36.6707 14.83562870927593
SL-14 R/B               
1 20511U 90018B   26062.89874168  .00000730  00000+0  88553-4 0  9996
2 20511  82.5192 228.5027 0017590 109.6435 250.6679 14.82137586921725
HST                     
1 20580U 90037B   26062.41753730  .00009009  00000+0  29940-3 0  9994
2 20580  28.4702  82.7831 0001695  63.3001 296.7768 15.29363841772354
SL-16 R/B               
1 20625U 90046B   26062.82977388 -.00000184  00000+0 -70232-4 0  9994
2 20625  71.0001 310.2216 0016146 307.4734  52.4919 14.15014535847566
COSMOS 2084             
1 20663U 90055A   26062.81099391  .00004028  00000+0  29075-3 0  9991
2 20663  62.7926 355.6267 0018031 188.7251 171.3539 15.05607622935437
SL-6 R/B(2)             
1 20666U 90055D   26062.78560876  .00002679  00000+0  20860-3 0  9994
2 20666  62.7819 273.9292 0023842 345.5629  14.4786 15.03560947937304
